[{"OBJECT_NAME":"STARLINK-2674","OBJECT_ID":"2021-038B","EPOCH":"2026-03-09T23:26:52.086336","MEAN_MOTION":15.30192431,"ECCENTRICITY":0.00014577,"INCLINATION":53.1599,"RA_OF_ASC_NODE":356.8683,"ARG_OF_PERICENTER":96.0218,"MEAN_ANOMALY":264.0949,"EPHEMERIS_TYPE":0,"CLASSIFICATION_TYPE":"U","NORAD_CAT_ID":48354,"ELEMENT_SET_NO":999,"REV_AT_EPOCH":26712,"BSTAR":2.246718e-5,"MEAN_MOTION_DOT":3.06e-6,"MEAN_MOTION_DDOT":0},{"OBJECT_NAME":"TEVEL2-1","OBJECT_ID":"2025-052H","EPOCH":"2026-03-09T15:32:51.927072","MEAN_MOTION":15.30341923,"ECCENTRICITY":0.0004767,"INCLINATION":97.3991,"RA_OF_ASC_NODE":324.7682,"ARG_OF_PERICENTER":104.8919,"MEAN_ANOMALY":255.2849,"EPHEMERIS_TYPE":0,"CLASSIFICATION_TYPE":"U","NORAD_CAT_ID":63217,"ELEMENT_SET_NO":999,"REV_AT_EPOCH":5485,"BSTAR":0.000706,"MEAN_MOTION_DOT":0.00020683,"MEAN_MOTION_DDOT":0}]
